NORAD_CAT_ID,OBJECT_NAME,OBJECT_TYPE,EPOCH,MEAN_MOTION,ECCENTRICITY,INCLINATION,RA_OF_ASC_NODE,ARG_OF_PERICENTER,MEAN_ANOMALY,BSTAR,MEAN_MOTION_DOT,MEAN_MOTION_DDOT,TLE_LINE0,TLE_LINE1,TLE_LINE2,SEMIMAJOR_AXIS,PERIOD,APOGEE,PERIGEE,DECAYED
52485.0,STARLINK-3913,PAYLOAD,2024-07-31 13:14:26,15.08841654,0.0001134,53.2149,160.3989,77.497,282.6149,-2.8528e-05,-7.42e-06,0.0,0 STARLINK-3913,1 52485U 22049AL  24213.55169119 -.00000742  00000-0 -28528-4 0  9994,2 52485  53.2149 160.3989 0001134  77.4970 282.6149 15.08841654123908,6917.875,95.437,540.525,538.956,0.0
52485.0,STARLINK-3913,PAYLOAD,2024-07-31 19:35:59,15.08832131,0.0001405,53.2175,159.2121,98.7574,261.3577,1.642e-05,-2.7e-07,0.0,0 STARLINK-3913,1 52485U 22049AL  24213.81665711 -.00000027  00000-0  16420-4 0  9995,2 52485  53.2175 159.2121 0001405  98.7574 261.3577 15.08832131123942,6917.904,95.438,540.741,538.797,0.0
52485.0,STARLINK-3913,PAYLOAD,2024-08-01 01:57:31,15.08829805,0.0001366,53.2166,158.0225,99.2574,260.8572,1.02e-05,-1.26e-06,0.0,0 STARLINK-3913,1 52485U 22049AL  24214.08162014 -.00000126  00000-0  10200-4 0  9993,2 52485  53.2166 158.0225 0001366  99.2574 260.8572 15.08829805124142,6917.912,95.438,540.722,538.832,0.0
52485.0,STARLINK-3913,PAYLOAD,2024-08-02 03:23:41,15.08848581,0.0001389,53.2173,153.2636,93.4309,266.6842,6.2615e-05,7.09e-06,0.0,0 STARLINK-3913,1 52485U 22049AL  24215.14144782  .00000709  00000-0  62615-4 0  9996,2 52485  53.2173 153.2636 0001389  93.4309 266.6842 15.08848581124304,6917.854,95.437,540.68,538.758,0.0
52485.0,STARLINK-3913,PAYLOAD,2024-08-02 12:56:00,15.08849676,0.0001368,53.2163,151.4708,72.4653,287.6488,-7.0964e-05,-1.417e-05,0.0,0 STARLINK-3913,1 52485U 22049AL  24215.53888981 -.00001417  00000-0 -70964-4 0  9990,2 52485  53.2163 151.4708 0001368  72.4653 287.6488 15.08849676124203,6917.851,95.437,540.662,538.769,0.0
52485.0,STARLINK-3913,PAYLOAD,2024-08-03 04:49:52,15.08832561,0.0001616,53.2165,148.4987,114.8175,245.2985,-4.3111e-05,-9.74e-06,0.0,0 STARLINK-3913,1 52485U 22049AL  24216.20130381 -.00000974  00000-0 -43111-4 0  9990,2 52485  53.2165 148.4987 0001616 114.8175 245.2985 15.08832561124461,6917.903,95.438,540.886,538.65,0.0
52485.0,STARLINK-3913,PAYLOAD,2024-08-03 12:46:48,15.08835498,0.000128,53.2167,147.013,97.3888,262.7249,1.4165e-05,-6.2e-07,0.0,0 STARLINK-3913,1 52485U 22049AL  24216.53250143 -.00000062  00000-0  14165-4 0  9999,2 52485  53.2167 147.0130 0001280  97.3888 262.7249 15.08835498124358,6917.894,95.438,540.645,538.874,0.0
52485.0,STARLINK-3913,PAYLOAD,2024-08-03 19:08:20,15.08841501,0.000122,53.2161,145.8256,109.0309,251.0815,-5.8823e-05,-1.224e-05,0.0,0 STARLINK-3913,1 52485U 22049AL  24216.79746092 -.00001224  00000-0 -58823-4 0  9991,2 52485  53.2161 145.8256 0001220 109.0309 251.0815 15.08841501124554,6917.876,95.437,540.585,538.897,0.0
52485.0,STARLINK-3913,PAYLOAD,2024-08-04 03:05:14,15.08861302,0.000124,53.2165,144.3346,109.3882,250.7244,0.000142,1.974e-05,0.0,0 STARLINK-3913,1 52485U 22049AL  24217.12863920  .00001974  00000-0  14200-3 0  9999,2 52485  53.2165 144.3346 0001240 109.3882 250.7244 15.08861302124602,6917.815,95.436,540.538,538.822,0.0
52485.0,STARLINK-3913,PAYLOAD,2024-08-04 12:37:34,15.08846403,0.0001403,53.2173,142.5547,96.6782,263.4369,-2.0556e-06,-3.21e-06,0.0,0 STARLINK-3913,1 52485U 22049AL  24217.52609330 -.00000321  00000-0 -20556-5 0  9996,2 52485  53.2173 142.5547 0001403  96.6782 263.4369 15.08846403124662,6917.861,95.437,540.696,538.755,0.0
52485.0,STARLINK-3913,PAYLOAD,2024-08-04 18:59:07,15.08836062,0.0001575,53.216,141.3708,76.1754,283.9413,0.00010366,1.362e-05,0.0,0 STARLINK-3913,1 52485U 22049AL  24217.79105812  .00001362  00000-0  10366-3 0  9991,2 52485  53.2160 141.3708 0001575  76.1754 283.9413 15.08836062124708,6917.892,95.438,540.847,538.668,0.0
52485.0,STARLINK-3913,PAYLOAD,2024-08-05 22:00:42,15.08817751,0.0001431,53.2171,136.3135,96.2916,263.824,-0.00019509,-3.39e-05,0.0,0 STARLINK-3913,1 52485U 22049AL  24218.91716064 -.00003390  00000-0 -19509-3 0  9996,2 52485  53.2171 136.3135 0001431  96.2916 263.8240 15.08817751124879,6917.948,95.439,540.803,538.823,0.0
52485.0,STARLINK-3913,PAYLOAD,2024-08-06 04:22:14,15.08831589,0.0001627,53.2172,135.1198,112.437,247.6795,-0.00020292,-3.515e-05,0.0,0 STARLINK-3913,1 52485U 22049AL  24219.18211361 -.00003515  00000-0 -20292-3 0  9996,2 52485  53.2172 135.1198 0001627 112.4370 247.6795 15.08831589124913,6917.906,95.438,540.897,538.646,0.0
52485.0,STARLINK-3913,PAYLOAD,2024-08-06 18:40:42,15.08832809,0.0001654,53.2183,132.4462,105.3547,254.7628,5.976e-05,6.63e-06,0.0,0 STARLINK-3913,1 52485U 22049AL  24219.77826765  .00000663  00000-0  59760-4 0  9993,2 52485  53.2183 132.4462 0001654 105.3547 254.7628 15.08832809125007,6917.902,95.438,540.912,538.623,0.0
52485.0,STARLINK-3913,PAYLOAD,2024-08-06 21:51:28,15.0883447,0.0001604,53.2173,131.8525,98.6695,261.4479,5.2189e-05,5.43e-06,0.0,0 STARLINK-3913,1 52485U 22049AL  24219.91074916  .00000543  00000-0  52189-4 0  9997,2 52485  53.2173 131.8525 0001604  98.6695 261.4479 15.08834470124860,6917.897,95.438,540.872,538.653,0.0
52485.0,STARLINK-3913,PAYLOAD,2024-08-07 01:02:14,15.08851431,0.0001704,53.2172,131.2556,109.1409,250.9768,5.8026e-05,6.36e-06,0.0,0 STARLINK-3913,1 52485U 22049AL  24220.04321793  .00000636  00000-0  58026-4 0  9990,2 52485  53.2172 131.2556 0001704 109.1409 250.9768 15.08851431125040,6917.845,95.437,540.889,538.532,0.0
52485.0,STARLINK-3913,PAYLOAD,2024-08-08 04:03:47,15.08841693,0.000166,53.2169,126.2007,121.5022,238.6132,0.00021235,3.093e-05,0.0,0 STARLINK-3913,1 52485U 22049AL  24221.16930026  .00003093  00000-0  21235-3 0  9990,2 52485  53.2169 126.2007 0001660 121.5022 238.6132 15.08841693125059,6917.875,95.437,540.889,538.592,0.0
52485.0,STARLINK-3913,PAYLOAD,2024-08-08 21:33:02,15.08844885,0.0001619,53.2161,122.9226,118.5642,241.5513,-3.4242e-05,-8.33e-06,0.0,0 STARLINK-3913,1 52485U 22049AL  24221.89794568 -.00000833  00000-0 -34242-4 0  9993,2 52485  53.2161 122.9226 0001619 118.5642 241.5513 15.08844885125327,6917.865,95.437,540.85,538.61,0.0
52485.0,STARLINK-3913,PAYLOAD,2024-08-09 03:54:34,15.08855832,0.0001393,53.2173,121.74,110.2868,249.8274,8.651e-05,1.09e-05,0.0,0 STARLINK-3913,1 52485U 22049AL  24222.16289547  .00001090  00000-0  86510-4 0  9999,2 52485  53.2173 121.7400 0001393 110.2868 249.8274 15.08855832125362,6917.832,95.437,540.661,538.733,0.0
52485.0,STARLINK-3913,PAYLOAD,2024-08-09 10:16:06,15.08852364,0.0001204,53.2165,120.5455,72.9883,287.1241,2.8847e-05,1.71e-06,0.0,0 STARLINK-3913,1 52485U 22049AL  24222.42785748  .00000171  00000-0  28847-4 0  9990,2 52485  53.2165 120.5455 0001204  72.9883 287.1241 15.08852364125403,6917.843,95.437,540.541,538.875,0.0
52485.0,STARLINK-3913,PAYLOAD,2024-08-09 21:23:49,15.088313,0.0001323,53.2176,118.4728,92.7435,267.3709,7.909e-05,9.71e-06,0.0,0 STARLINK-3913,1 52485U 22049AL  24222.89154819  .00000971  00000-0  79090-4 0  9994,2 52485  53.2176 118.4728 0001323  92.7435 267.3709 15.08831300125315,6917.907,95.438,540.687,538.857,0.0
52485.0,STARLINK-3913,PAYLOAD,2024-08-10 00:34:34,15.08849285,0.0001259,53.217,117.8742,94.773,265.3406,0.00021014,3.059e-05,0.0,0 STARLINK-3913,1 52485U 22049AL  24223.02401402  .00003059  00000-0  21014-3 0  9995,2 52485  53.2170 117.8742 0001259  94.7730 265.3406 15.08849285125331,6917.852,95.437,540.588,538.846,0.0
52485.0,STARLINK-3913,PAYLOAD,2024-08-10 21:14:36,15.08846646,0.0001368,53.2169,114.0143,68.5789,291.5349,2.6869e-05,1.4e-06,0.0,0 STARLINK-3913,1 52485U 22049AL  24223.88514327  .00000140  00000-0  26869-4 0  9992,2 52485  53.2169 114.0143 0001368  68.5789 291.5349 15.08846646125624,6917.86,95.437,540.671,538.779,0.0
52485.0,STARLINK-3913,PAYLOAD,2024-08-10 22:49:59,15.08848761,0.0001624,53.2161,113.717,58.3175,301.7975,5.8172e-05,6.38e-06,0.0,0 STARLINK-3913,1 52485U 22049AL  24223.95138168  .00000638  00000-0  58172-4 0  9999,2 52485  53.2161 113.7170 0001624  58.3175 301.7975 15.08848761125475,6917.854,95.437,540.842,538.595,0.0
52485.0,STARLINK-3913,PAYLOAD,2024-08-11 02:00:45,15.08856216,0.0001237,53.2164,113.1206,77.2109,282.9021,8.2819e-06,-1.56e-06,0.0,0 STARLINK-3913,1 52485U 22049AL  24224.08385543 -.00000156  00000-0  82819-5 0  9997,2 52485  53.2164 113.1206 0001237  77.2109 282.9021 15.08856216125655,6917.831,95.437,540.552,538.84,0.0
52485.0,STARLINK-3913,PAYLOAD,2024-08-11 09:57:42,15.08836563,0.0001935,53.2176,111.6256,74.2672,285.8534,-4.4823e-05,-1.001e-05,0.0,0 STARLINK-3913,1 52485U 22049AL  24224.41507019 -.00001001  00000-0 -44823-4 0  9991,2 52485  53.2176 111.6256 0001935  74.2672 285.8534 15.08836563125703,6917.891,95.438,541.095,538.417,0.0
52485.0,STARLINK-3913,PAYLOAD,2024-08-11 22:40:46,15.08833975,0.0001041,53.217,109.251,58.0654,302.044,8.8619e-05,1.123e-05,0.0,0 STARLINK-3913,1 52485U 22049AL  24224.94498796  .00001123  00000-0  88619-4 0  9994,2 52485  53.2170 109.2510 0001041  58.0654 302.0440 15.08833975125624,6917.899,95.438,540.484,539.044,0.0
52485.0,STARLINK-3913,PAYLOAD,2024-08-12 09:48:27,15.0885761,0.0001408,53.2172,107.1696,68.1289,291.9853,6.8857e-05,8.09e-06,0.0,0 STARLINK-3913,1 52485U 22049AL  24225.40865045  .00000809  00000-0  68857-4 0  9993,2 52485  53.2172 107.1696 0001408  68.1289 291.9853 15.08857610125852,6917.827,95.436,540.666,538.718,0.0
52485.0,STARLINK-3913,PAYLOAD,2024-08-12 16:10:00,15.08851676,0.0001707,53.2173,105.9797,94.0129,266.1058,2.8007e-05,1.58e-06,0.0,0 STARLINK-3913,1 52485U 22049AL  24225.67361744  .00000158  00000-0  28007-4 0  9999,2 52485  53.2173 105.9797 0001707  94.0129 266.1058 15.08851676125895,6917.845,95.437,540.891,538.529,0.0
52485.0,STARLINK-3913,PAYLOAD,2024-08-12 22:31:31,15.08874511,0.0001895,53.2166,104.789,120.5544,239.5636,0.00032332,4.866e-05,0.0,0 STARLINK-3913,1 52485U 22049AL  24225.93856116  .00004866  00000-0  32332-3 0  9995,2 52485  53.2166 104.7890 0001895 120.5544 239.5636 15.08874511125778,6917.775,95.435,540.951,538.329,0.0
